NORAD_CAT_ID,OBJECT_NAME,OBJECT_TYPE,EPOCH,MEAN_MOTION,ECCENTRICITY,INCLINATION,RA_OF_ASC_NODE,ARG_OF_PERICENTER,MEAN_ANOMALY,BSTAR,MEAN_MOTION_DOT,MEAN_MOTION_DDOT,TLE_LINE0,TLE_LINE1,TLE_LINE2,SEMIMAJOR_AXIS,PERIOD,APOGEE,PERIGEE,DECAYED
53388.0,STARLINK-4522,PAYLOAD,2024-01-15 12:10:22,15.088516,0.0001542,53.2164,44.4488,101.6025,258.5141,0.00019473,2.813e-05,0.0,0 STARLINK-4522,1 53388U 22097A   24015.50720792  .00002813  00000-0  19473-3 0  9992,2 53388  53.2164  44.4488 0001542 101.6025 258.5141 15.08851600 79634,6917.845,95.437,540.777,538.643,0.0
53388.0,STARLINK-4522,PAYLOAD,2024-01-16 02:28:52,15.08834371,0.0001932,53.2164,41.7721,105.6853,254.4353,-7.7046e-06,-4.11e-06,0.0,0 STARLINK-4522,1 53388U 22097A   24016.10338672 -.00000411  00000-0 -77046-5 0  9997,2 53388  53.2164  41.7721 0001932 105.6853 254.4353 15.08834371 79726,6917.898,95.438,541.099,538.426,0.0
53388.0,STARLINK-4522,PAYLOAD,2024-01-16 12:01:11,15.08839932,0.0001641,53.2178,39.9884,104.2964,255.8211,1.688e-05,-1.9e-07,0.0,0 STARLINK-4522,1 53388U 22097A   24016.50082400 -.00000019  00000-0  16880-4 0  9997,2 53388  53.2178  39.9884 0001641 104.2964 255.8211 15.08839932 80611,6917.881,95.438,540.881,538.61,0.0
53388.0,STARLINK-4522,PAYLOAD,2024-01-17 08:41:13,15.0883338,0.0001615,53.2186,36.1278,71.762,288.3548,-4.9286e-05,-1.072e-05,0.0,0 STARLINK-4522,1 53388U 22097A   24017.36195721 -.00001072  00000-0 -49286-4 0  9990,2 53388  53.2186  36.1278 0001615  71.7620 288.3548 15.08833380 79910,6917.901,95.438,540.883,538.648,0.0
53388.0,STARLINK-4522,PAYLOAD,2024-01-17 22:59:40,15.08837717,0.0001712,53.2185,33.4472,90.7827,269.3362,0.00018908,2.722e-05,0.0,0 STARLINK-4522,1 53388U 22097A   24017.95810979  .00002722  00000-0  18908-3 0  9991,2 53388  53.2185  33.4472 0001712  90.7827 269.3362 15.08837717 80006,6917.887,95.438,540.937,538.568,0.0
53388.0,STARLINK-4522,PAYLOAD,2024-01-18 08:31:59,15.08855325,0.0001708,53.2175,31.6628,90.5292,269.5896,0.00047718,7.318e-05,0.0,0 STARLINK-4522,1 53388U 22097A   24018.35554485  .00007318  00000-0  47718-3 0  9990,2 53388  53.2175  31.6628 0001708  90.5292 269.5896 15.08855325 80062,6917.834,95.437,540.88,538.517,0.0
53388.0,STARLINK-4522,PAYLOAD,2024-01-19 00:25:50,15.08849263,0.0001667,53.2177,28.6916,99.3619,260.7561,0.00033377,5.029e-05,0.0,0 STARLINK-4522,1 53388U 22097A   24019.01794815  .00005029  00000-0  33377-3 0  9990,2 53388  53.2177  28.6916 0001667  99.3619 260.7561 15.08849263 80161,6917.852,95.437,540.87,538.564,0.0
53388.0,STARLINK-4522,PAYLOAD,2024-01-19 06:47:23,15.08833568,0.0001753,53.2175,27.4984,100.0489,260.07,-0.00014127,-2.535e-05,0.0,0 STARLINK-4522,1 53388U 22097A   24019.28291238 -.00002535  00000-0 -14127-3 0  9993,2 53388  53.2175  27.4984 0001753 100.0489 260.0700 15.08833568 80206,6917.9,95.438,540.978,538.552,0.0
53388.0,STARLINK-4522,PAYLOAD,2024-01-20 03:27:24,15.08846949,0.000207,53.2187,23.6326,128.3561,231.7617,0.00073937,0.00011501,0.0,0 STARLINK-4522,1 53388U 22097A   24020.14403078  .00011501  00000-0  73937-3 0  9992,2 53388  53.2187  23.6326 0002070 128.3561 231.7617 15.08846949 80337,6917.859,95.437,541.156,538.292,0.0
53388.0,STARLINK-4522,PAYLOAD,2024-01-20 06:38:10,15.08856502,0.000181,53.2174,23.0374,106.2738,253.8453,0.00094485,0.00014788,0.0,0 STARLINK-4522,1 53388U 22097A   24020.27650969  .00014788  00000-0  94485-3 0  9990,2 53388  53.2174  23.0374 0001810 106.2738 253.8453 15.08856502 81185,6917.83,95.437,540.947,538.443,0.0
53388.0,STARLINK-4522,PAYLOAD,2024-01-21 03:18:11,15.08855111,0.0002348,53.2193,19.1712,117.4889,242.6342,0.00055,8.48e-05,0.0,0 STARLINK-4522,1 53388U 22097A   24021.13762753  .00008480  00000-0  55000-3 0  9993,2 53388  53.2193  19.1712 0002348 117.4889 242.6342 15.08855111 80486,6917.834,95.437,541.324,538.075,0.0
53388.0,STARLINK-4522,PAYLOAD,2024-01-21 06:28:57,15.08852242,0.0002081,53.2185,18.5771,112.8834,247.2378,0.0003687,5.587e-05,0.0,0 STARLINK-4522,1 53388U 22097A   24021.27010722  .00005587  00000-0  36870-3 0  9999,2 53388  53.2185  18.5771 0002081 112.8834 247.2378 15.08852242 81335,6917.843,95.437,541.148,538.268,0.0
53388.0,STARLINK-4522,PAYLOAD,2024-01-21 22:22:48,15.0884651,0.0002165,53.2189,15.6069,113.135,246.9871,0.00013862,1.919e-05,0.0,0 STARLINK-4522,1 53388U 22097A   24021.93250652  .00001919  00000-0  13862-3 0  9991,2 53388  53.2189  15.6069 0002165 113.1350 246.9871 15.08846510 81433,6917.86,95.437,541.223,538.228,0.0
53388.0,STARLINK-4522,PAYLOAD,2024-01-22 03:08:58,15.08841996,0.0001795,53.217,14.7138,101.3174,258.8019,1.9702e-06,-2.57e-06,0.0,0 STARLINK-4522,1 53388U 22097A   24022.13122928 -.00000257  00000-0  19702-5 0  9994,2 53388  53.2170  14.7138 0001795 101.3174 258.8019 15.08841996 80631,6917.874,95.437,540.981,538.498,0.0
53388.0,STARLINK-4522,PAYLOAD,2024-01-22 06:19:44,15.08846067,0.0001799,53.217,14.1171,100.7555,259.364,5.6785e-05,6.16e-06,0.0,0 STARLINK-4522,1 53388U 22097A   24022.26370769  .00000616  00000-0  56785-4 0  9995,2 53388  53.2170  14.1171 0001799 100.7555 259.3640 15.08846067 81486,6917.862,95.437,540.971,538.482,0.0
53388.0,STARLINK-4522,PAYLOAD,2024-01-23 06:10:31,15.08844706,0.0001938,53.2173,9.654,98.1313,261.9899,3.529e-05,2.74e-06,0.0,0 STARLINK-4522,1 53388U 22097A   24023.25730698  .00000274  00000-0  35290-4 0  9994,2 53388  53.2173   9.6540 0001938  98.1313 261.9899 15.08844706 80803,6917.866,95.437,541.072,538.39,0.0
53388.0,STARLINK-4522,PAYLOAD,2024-01-24 06:01:18,15.08843899,0.0001809,53.2188,5.2005,92.3029,267.8171,0.00010875,1.443e-05,0.0,0 STARLINK-4522,1 53388U 22097A   24024.25090820  .00001443  00000-0  10875-3 0  9991,2 53388  53.2188   5.2005 0001809  92.3029 267.8171 15.08843899 81782,6917.868,95.437,540.985,538.482,0.0
53388.0,STARLINK-4522,PAYLOAD,2024-01-25 02:41:20,15.08827415,0.0002035,53.2191,1.3319,79.6448,280.4774,0.00034841,5.259e-05,0.0,0 STARLINK-4522,1 53388U 22097A   24025.11203817  .00005259  00000-0  34841-3 0  9997,2 53388  53.2191   1.3319 0002035  79.6448 280.4774 15.08827415 81085,6917.919,95.438,541.192,538.376,0.0
53388.0,STARLINK-4522,PAYLOAD,2024-01-25 05:52:07,15.08796984,0.0002288,53.2206,0.7364,75.6385,284.4861,0.00080172,0.00012479,0.0,0 STARLINK-4522,1 53388U 22097A   24025.24452671  .00012479  00000-0  80172-3 0  9995,2 53388  53.2206   0.7364 0002288  75.6385 284.4861 15.08796984 81101,6918.012,95.44,541.46,538.294,0.0
53388.0,STARLINK-4522,PAYLOAD,2024-01-26 04:07:30,15.08839837,0.0002225,53.2203,356.579,67.3853,292.7374,7.5248e-05,9.09e-06,0.0,0 STARLINK-4522,1 53388U 22097A   24026.17187631  .00000909  00000-0  75248-4 0  9993,2 53388  53.2203 356.5790 0002225  67.3853 292.7374 15.08839837 81243,6917.881,95.438,541.285,538.207,0.0
53388.0,STARLINK-4522,PAYLOAD,2024-01-26 05:42:52,15.08844478,0.0001969,53.2199,356.2769,71.4064,288.7142,8.7566e-05,1.106e-05,0.0,0 STARLINK-4522,1 53388U 22097A   24026.23811238  .00001106  00000-0  87566-4 0  9993,2 53388  53.2199 356.2769 0001969  71.4064 288.7142 15.08844478 82082,6917.867,95.437,541.094,538.37,0.0
53388.0,STARLINK-4522,PAYLOAD,2024-01-27 03:58:19,15.08823625,0.0002322,53.2186,352.1212,65.6402,294.4832,-9.8092e-05,-1.848e-05,0.0,0 STARLINK-4522,1 53388U 22097A   24027.16550127 -.00001848  00000-0 -98092-4 0  9994,2 53388  53.2186 352.1212 0002322  65.6402 294.4832 15.08823625 81395,6917.93,95.439,541.402,538.189,0.0
53388.0,STARLINK-4522,PAYLOAD,2024-01-27 07:09:04,15.0884182,0.0001926,53.2206,351.5182,83.9322,276.189,9.8206e-05,1.275e-05,0.0,0 STARLINK-4522,1 53388U 22097A   24027.29796496  .00001275  00000-0  98206-4 0  9998,2 53388  53.2206 351.5182 0001926  83.9322 276.1890 15.08841820 81411,6917.875,95.437,541.072,538.407,0.0
53388.0,STARLINK-4522,PAYLOAD,2024-01-28 03:49:04,15.08860943,0.0001659,53.2184,347.6499,98.1359,261.9821,0.00044069,6.736e-05,0.0,0 STARLINK-4522,1 53388U 22097A   24028.15907553  .00006736  00000-0  44069-3 0  9996,2 53388  53.2184 347.6499 0001659  98.1359 261.9821 15.08860943 81541,6917.816,95.436,540.829,538.534,0.0
53388.0,STARLINK-4522,PAYLOAD,2024-01-28 06:59:50,15.08863354,0.0001754,53.2184,347.0556,106.0557,254.0629,0.00078759,0.00012277,0.0,0 STARLINK-4522,1 53388U 22097A   24028.29155895  .00012277  00000-0  78759-3 0  9995,2 53388  53.2184 347.0556 0001754 106.0557 254.0629 15.08863354 82396,6917.809,95.436,540.887,538.461,0.0
53388.0,STARLINK-4522,PAYLOAD,2024-01-29 03:39:51,15.08854215,0.0001455,53.2189,343.1828,110.2791,249.8358,0.0001529,2.147e-05,0.0,0 STARLINK-4522,1 53388U 22097A   24029.15267468  .00002147  00000-0  15290-3 0  9997,2 53388  53.2189 343.1828 0001455 110.2791 249.8358 15.08854215 81694,6917.837,95.437,540.708,538.695,0.0
53388.0,STARLINK-4522,PAYLOAD,2024-01-29 06:50:37,15.08858829,0.0001455,53.2192,342.5971,95.2843,264.8315,0.00021325,3.109e-05,0.0,0 STARLINK-4522,1 53388U 22097A   24029.28515372  .00003109  00000-0  21325-3 0  9996,2 53388  53.2192 342.5971 0001455  95.2843 264.8315 15.08858829 82540,6917.823,95.436,540.694,538.681,0.0
53388.0,STARLINK-4522,PAYLOAD,2024-01-30 03:30:38,15.08845683,0.0001494,53.219,338.7287,104.0969,256.0189,-5.9981e-05,-1.243e-05,0.0,0 STARLINK-4522,1 53388U 22097A   24030.14627414 -.00001243  00000-0 -59981-4 0  9993,2 53388  53.2190 338.7287 0001494 104.0969 256.0189 15.08845683 81844,6917.863,95.437,540.762,538.694,0.0
53388.0,STARLINK-4522,PAYLOAD,2024-01-30 06:41:24,15.0884367,0.0001509,53.2192,338.1345,102.4661,257.65,-4.6964e-05,-1.035e-05,0.0,0 STARLINK-4522,1 53388U 22097A   24030.27875488 -.00001035  00000-0 -46964-4 0  9999,2 53388  53.2192 338.1345 0001509 102.4661 257.6500 15.08843670 82695,6917.869,95.437,540.778,538.69,0.0
53388.0,STARLINK-4522,PAYLOAD,2024-01-31 01:46:02,15.08840087,0.0001378,53.2186,334.5661,100.1127,260.002,0.00010316,1.354e-05,0.0,0 STARLINK-4522,1 53388U 22097A   24031.07363664  .00001354  00000-0  10316-3 0  9999,2 53388  53.2186 334.5661 0001378 100.1127 260.0020 15.08840087 81980,6917.88,95.438,540.698,538.792,0.0
